STARLINK-3112           
1 49421U 21104P   24232.38777652  .00000866  00000+0  72489-4 0  9999
2 49421  53.2158 255.6469 0001593  84.7615 275.3559 15.08836266152988
STARLINK-3161           
1 49422U 21104Q   24232.38143236  .00001119  00000+0  88424-4 0  9993
2 49422  53.2157 256.1829 0001506  83.9225 276.1939 15.08836359152979
STARLINK-3149           
1 49423U 21104R   24232.54975809 -.00001558  00000+0 -79830-4 0  9991
2 49423  53.2166 255.3040 0001476  83.3138 276.8022 15.08823502153000
STARLINK-3135           
1 49424U 21104S   24232.54235191  .00000946  00000+0  77541-4 0  9990
2 49424  53.2160 255.1434 0001580  90.2165 269.9008 15.08843241153002
STARLINK-3139           
1 49425U 21104T   24232.39611577  .00005875  00000+0  38676-3 0  9991
2 49425  53.2138 255.8131 0000910 113.9610 246.1478 15.08853418152995
STARLINK-3114           
1 49426U 21104U   24232.53499581  .00000779  00000+0  67054-4 0  9998
2 49426  53.2147 255.1792 0001484  78.3409 281.7750 15.08840232153000
STARLINK-3131           
1 49427U 21104V   24232.39243542 -.00001556  00000+0 -79696-4 0  9998
2 49427  53.2146 255.8284 0001576  89.1369 270.9804 15.08829747152995
STARLINK-3121           
1 49428U 21104W   24232.50554965  .00000314  00000+0  37824-4 0  9992
2 49428  53.2158 255.2229 0001515  87.8839 272.2326 15.08833153153016
STARLINK-3138           
1 49430U 21104Y   24232.54702390  .00000697  00000+0  61857-4 0  9993
2 49430  53.2158 255.4029 0001580  85.8653 274.2520 15.08839117153017
STARLINK-3153           
1 49431U 21104Z   24232.49821831  .00000481  00000+0  48341-4 0  9994
2 49431  53.2154 255.5265 0001739  76.7127 283.4059 15.08835960153008
STARLINK-3158           
1 49432U 21104AA  24232.55158429  .00001318  00000+0  10088-3 0  9994
2 49432  53.2163 245.0995 0001169  75.0547 285.0575 15.08843570153151
STARLINK-3079           
1 49433U 21104AB  24232.48531353  .00000054  00000+0  21462-4 0  9993
2 49433  53.2155 235.4009 0001676  84.8728 275.2455 15.08838963154377
STARLINK-3134           
1 49434U 21104AC  24232.33261536  .00001165  00000+0  91277-4 0  9996
2 49434  53.2140 256.2419 0001255  94.2108 265.9027 15.08838545154061
STARLINK-3117           
1 49435U 21104AD  24232.48994463 -.00003516  00000+0 -20292-3 0  9997
2 49435  53.2163 235.3807 0001339 103.3177 256.7964 15.08846038154375
STARLINK-3049           
1 49436U 21104AE  24232.48899537  .00001103  00000+0  87383-4 0  9997
2 49436  53.2148 235.3849 0001467  95.7817 264.3343 15.08843001153284
STARLINK-3130           
1 49437U 21104AF  24232.48163935  .00008565  00000+0  55564-3 0  9998
2 49437  53.2145 235.4180 0000872  98.6640 261.4451 15.08833858153283
STARLINK-3044           
1 49438U 21104AG  24232.53778143  .00000241  00000+0  33207-4 0  9992
2 49438  53.2159 235.0976 0001591  88.2995 271.8180 15.08841419153292
STARLINK-3105           
1 49440U 21104AJ  24232.34179581  .00000993  00000+0  80447-4 0  9997
2 49440  53.2151 236.0450 0001499  89.3827 270.7337 15.08838997153264
STARLINK-3128           
1 49441U 21104AK  24232.52208068  .00004206  00000+0  28190-3 0  9998
2 49441  53.2155 235.2351 0000973  99.6383 260.4719 15.08877228154370
STARLINK-3098           
1 49442U 21104AL  24232.53683366  .00000130  00000+0  26278-4 0  9996
2 49442  53.2148 235.1697 0001366  91.4101 268.7048 15.08842690153291
STARLINK-3136           
1 49443U 21104AM  24232.45219630  .00000791  00000+0  67772-4 0  9994
2 49443  53.2166 235.5491 0001117  74.3435 285.7680 15.08835710153287
STARLINK-3126           
1 49444U 21104AN  24232.53407841  .00005060  00000+0  33549-3 0  9995
2 49444  53.2161 235.1904 0001560  84.7521 275.3649 15.08872043153292
STARLINK-3122           
1 49445U 21104AP  24232.51852124  .00001533  00000+0  11436-3 0  9994
2 49445  53.2148 245.6455 0001422  80.4793 279.6360 15.08842484154234
STARLINK-3099           
1 49446U 21104AQ  24232.52947741  .00000793  00000+0  67939-4 0  9993
2 49446  53.2147 235.2008 0001616  80.5084 279.6090 15.08837138153297
STARLINK-3115           
1 49447U 21104AR  24232.47335491 -.00000030  00000+0  16190-4 0  9999
2 49447  53.2157 245.4536 0001324  99.2121 260.9021 15.08835331154216
STARLINK-3137           
1 49449U 21104AT  24232.53591544 -.00000023  00000+0  16661-4 0  9996
2 49449  53.2138 245.1851 0001619  83.3216 276.7960 15.08843658153150
STARLINK-3127           
1 49450U 21104AU  24232.48072080  .00001058  00000+0  84571-4 0  9994
2 49450  53.2156 245.4602 0001301  94.3926 265.7215 15.08838324153400
STARLINK-3125           
1 49451U 21104AV  24232.53223322  .00000272  00000+0  35215-4 0  9996
2 49451  53.2159 245.1908 0001503  85.2833 274.8330 15.08837875153151
STARLINK-3150           
1 49452U 21104AW  24232.32343745 -.00000541  00000+0 -15890-4 0  9994
2 49452  53.2158 246.1624 0001128  89.9386 270.1736 15.08834675153125
STARLINK-3129           
1 49453U 21104AX  24232.53321079 -.00000644  00000+0 -22370-4 0  9999
2 49453  53.2160 245.2721 0001425  64.6800 295.4340 15.08829896153151
STARLINK-3160           
1 49454U 21104AY  24232.52858999 -.00002785  00000+0 -15707-3 0  9998
2 49454  53.2156 245.2080 0001480  85.3620 274.7541 15.08807344153153
STARLINK-3145           
1 49455U 21104AZ  24232.51383407  .00000126  00000+0  25981-4 0  9996
2 49455  53.2157 245.2725 0001543  86.5261 273.5908 15.08839399154223
STARLINK-3124           
1 49456U 21104BA  24232.52585189 -.00000836  00000+0 -34445-4 0  9994
2 49456  53.2158 245.2677 0001438  88.0961 272.0195 15.08827319153150
STARLINK-3132           
1 49457U 21104BB  24232.51111240 -.00000431  00000+0 -90011-5 0  9990
2 49457  53.2159 245.2956 0001349  96.4232 263.6914 15.08841320153150
STARLINK-3156           
1 49458U 21104BC  24232.51752634 -.00002798  00000+0 -15781-3 0  9996
2 49458  53.2154 245.2553 0001437  91.0538 269.0619 15.08832411153150
STARLINK-3141           
1 49459U 21104BD  24232.50647637 -.00002821  00000+0 -15932-3 0  9997
2 49459  53.2152 245.3078 0000869  55.6583 304.4491 15.08826645153150
STARLINK-3140           
1 49460U 21104BE  24232.30407863  .00001017  00000+0  81992-4 0  9996
2 49460  53.2140 246.2165 0001759  92.7424 267.3770 15.08837986154205
STARLINK-3219           
1 49724U 21115A   24232.57181887  .00001378  00000+0  10464-3 0  9990
2 49724  53.2167 175.2343 0001495  89.7162 270.4002 15.08844126149917
STARLINK-3218           
1 49725U 21115B   24232.26268977 -.00000282  00000+0  34961-6 0  9998
2 49725  53.2169 176.5016 0001483 105.2043 254.9113 15.08832524149874
STARLINK-3237           
1 49726U 21115C   24232.77644999  .00592619  00000+0  58415-2 0  9992
2 49726  53.1834 151.0977 0008169 170.9133 189.2032 15.63507963151380
STARLINK-3242           
1 49727U 21115D   24232.15134857  .00000275  00000+0  35354-4 0  9993
2 49727  53.2163 186.8978 0001433  91.3244 268.7913 15.08846053149710
STARLINK-3240           
1 49728U 21115E   24232.15503140  .00001563  00000+0  11625-3 0  9994
2 49728  53.2160 186.8818 0001549  90.2883 269.8287 15.08841382149712
STARLINK-3251           
1 49729U 21115F   24232.14765637  .00000189  00000+0  29957-4 0  9996
2 49729  53.2181 186.7918 0002229 145.7167 214.3969 15.08842042149719
STARLINK-3249           
1 49730U 21115G   24232.31697085  .00002263  00000+0  16024-3 0  9993
2 49730  53.2167 186.3520 0001597 107.1987 252.9181 15.08841694149737
STARLINK-3246           
1 49732U 21115J   24232.85425651  .00000428  00000+0  44990-4 0  9997
2 49732  53.2166 183.8964 0001568 117.6790 242.4361 15.08837603150920
STARLINK-3252           
1 49733U 21115K   24232.56719688  .00001046  00000+0  83825-4 0  9999
2 49733  53.2169 185.0317 0001325  93.7877 266.3267 15.08837014149778
STARLINK-3238           
1 49734U 21115L   24232.12284015 -.00002032  00000+0 -10962-3 0  9992
2 49734  53.2164 177.0479 0001394  95.5604 264.5547 15.08844641149852
STARLINK-3113           
1 49735U 21115M   24232.16238272  .00000368  00000+0  41207-4 0  9996
2 49735  53.2154 186.7318 0001413  93.6850 266.4304 15.08835284149715
STARLINK-3148           
1 49736U 21115N   24232.84777349 -.00000065  00000+0  14010-4 0  9992
2 49736  53.2153 173.6557 0001458  86.4984 273.6175 15.08843689151078
STARLINK-3225           
1 49737U 21115P   24232.85515574  .00000871  00000+0  72848-4 0  9991
2 49737  53.2174 173.7426 0001448  91.0397 269.0761 15.08835949151077
STARLINK-3143           
1 49738U 21115Q   24232.55069247  .00005979  00000+0  39346-3 0  9999
2 49738  53.2166 175.3129 0001148  96.3411 263.7711 15.08834264151029
STARLINK-3155           
1 49739U 21115R   24232.84318008  .00002809  00000+0  19441-3 0  9997
2 49739  53.2164 183.7940 0001351  85.6141 274.5006 15.08853387150921
STARLINK-3226           
1 49740U 21115S   24232.14219269  .00016119  00000+0  10277-2 0  9997
2 49740  53.2160 176.9140 0001355  93.8142 266.3006 15.08869748149858
STARLINK-3244           
1 49741U 21115T   24232.07227490 -.00000091  00000+0  12363-4 0  9998
2 49741  53.2158 177.2613 0001220 109.9256 250.1868 15.08833091149849
STARLINK-3202           
1 49742U 21115U   24232.54974017 -.00002223  00000+0 -12170-3 0  9990
2 49742  53.2163 175.1125 0001611  99.1470 260.9704 15.08812911151022
STARLINK-3239           
1 49743U 21115V   24232.13483619 -.00002073  00000+0 -11225-3 0  9992
2 49743  53.2165 176.9043 0001376  95.7114 264.4035 15.08826351149855
STARLINK-3231           
1 49744U 21115W   24232.21578315  .00000887  00000+0  73798-4 0  9993
2 49744  53.2164 176.5026 0001187 110.6207 249.4913 15.08832201150976
STARLINK-3241           
1 49745U 21115X   24232.54330434  .00000690  00000+0  61408-4 0  9995
2 49745  53.2165 175.1140 0001319  89.5355 270.5789 15.08838333149915
STARLINK-3233           
1 49746U 21115Y   24232.23323731  .00000899  00000+0  74556-4 0  9993
2 49746  53.2174 176.5321 0001354  93.3171 266.7976 15.08836998149864
